ONEWEB-0584             
1 54651U 22166K   23285.93781174  .00010585  00000+0  25525-1 0  9996
2 54651  87.9190  78.7269 0001695 105.6074 254.5247 13.21939410 42288
ONEWEB-0585             
1 54652U 22166L   23286.18856762 -.00011495  00000+0 -27981-1 0  9992
2 54652  87.9196  78.6791 0001616 100.7039 259.4277 13.21632896 42795
ONEWEB-0586             
1 54653U 22166M   23286.50403779 -.00007610  00000+0 -18529-1 0  9997
2 54653  87.9170  78.6594 0001945 101.0905 259.0448 13.21619018 42832
ONEWEB-0587             
1 54654U 22166N   23285.90865477 -.00003954  00000+0 -96166-2 0  9999
2 54654  87.9186  78.7247 0001407  74.2379 285.8910 13.21780422 42441
ONEWEB-0589             
1 54655U 22166P   23285.89601472 -.00003238  00000+0 -78783-2 0  9991
2 54655  87.9196  78.7429 0002166 122.9265 237.2077 13.21792626 42302
ONEWEB-0590             
1 54656U 22166Q   23286.45061930  .00004364  00000+0  10496-1 0  9999
2 54656  87.9196  78.6366 0001881  94.9345 265.2004 13.22037003 42822
ONEWEB-0591             
1 54657U 22166R   23286.46328613  .00009959  00000+0  23989-1 0  9991
2 54657  87.9202  78.6351 0001632  98.2366 261.8953 13.22011851 42850
ONEWEB-0592             
1 54658U 22166S   23286.46567904  .00007968  00000+0  19236-1 0  9998
2 54658  87.9188  78.6150 0001782  98.1757 261.9579 13.21853352 42742
